{
  "norad_id": 59925,
  "name": "STARLINK-31959",
  "history": [
    {
      "epoch": "2026-05-06T08:14:17.009952Z",
      "apogee_km": 483.76561405308166,
      "perigee_km": 482.3270983506209,
      "latitude_deg": 3.994187888252317e-05,
      "longitude_deg": 15.310021463712223,
      "height_km": 482.1076317182353,
      "semi_major_axis_km": 6861.183356201851,
      "eccentricity": 0.00010483,
      "inclination_deg": 43.0027,
      "raan_deg": 3.0861,
      "arg_perigee_deg": 6.6601,
      "mean_anomaly_deg": 353.4265,
      "mean_motion_rev_day": 15.27580915
    },
    {
      "epoch": "2026-05-07T15:37:25.906656Z",
      "apogee_km": 483.3841438304162,
      "perigee_km": 482.75702945699686,
      "latitude_deg": 3.597228599776707e-05,
      "longitude_deg": -104.15012631920604,
      "height_km": 482.7098877078757,
      "semi_major_axis_km": 6861.207586643706,
      "eccentricity": 4.57e-05,
      "inclination_deg": 43.0022,
      "raan_deg": 355.702,
      "arg_perigee_deg": 295.8621,
      "mean_anomaly_deg": 64.2184,
      "mean_motion_rev_day": 15.27572823
    },
    {
      "epoch": "2026-05-08T21:26:22.432416Z",
      "apogee_km": 483.8478365326482,
      "perigee_km": 482.20252984111994,
      "latitude_deg": 3.258219378138502e-05,
      "longitude_deg": 160.3747549872591,
      "height_km": 482.62202607013717,
      "semi_major_axis_km": 6861.162183186883,
      "eccentricity": 0.0001199,
      "inclination_deg": 43.002,
      "raan_deg": 348.6869,
      "arg_perigee_deg": 282.6323,
      "mean_anomaly_deg": 77.4395,
      "mean_motion_rev_day": 15.27587986
    },
    {
      "epoch": "2026-05-09T16:16:16.889664Z",
      "apogee_km": 483.81590945745575,
      "perigee_km": 482.35858542729875,
      "latitude_deg": 1.9774415946494157e-06,
      "longitude_deg": -127.30637876879273,
      "height_km": 482.7669918640884,
      "semi_major_axis_km": 6861.2242474423765,
      "eccentricity": 0.0001062,
      "inclination_deg": 43.0011,
      "raan_deg": 344.2561,
      "arg_perigee_deg": 277.634,
      "mean_anomaly_deg": 82.4391,
      "mean_motion_rev_day": 15.27567259
    },
    {
      "epoch": "2026-05-10T00:07:03.239904Z",
      "apogee_km": 483.79494513407644,
      "perigee_km": 482.3199255543668,
      "latitude_deg": 5.521910294042551e-06,
      "longitude_deg": 112.83196604314301,
      "height_km": 482.89761504081156,
      "semi_major_axis_km": 6861.194435344221,
      "eccentricity": 0.00010749,
      "inclination_deg": 43.0018,
      "raan_deg": 342.4098,
      "arg_perigee_deg": 265.0555,
      "mean_anomaly_deg": 95.0174,
      "mean_motion_rev_day": 15.27577215
    }
  ]
}